[{"OBJECT_NAME":"STARLINK-30762","OBJECT_ID":"2023-167Y","EPOCH":"2026-03-09T05:49:52.188096","MEAN_MOTION":15.26733401,"ECCENTRICITY":0.00016288,"INCLINATION":42.9984,"RA_OF_ASC_NODE":146.1807,"ARG_OF_PERICENTER":278.2403,"MEAN_ANOMALY":81.8263,"EPHEMERIS_TYPE":0,"CLASSIFICATION_TYPE":"U","NORAD_CAT_ID":58197,"ELEMENT_SET_NO":999,"REV_AT_EPOCH":13091,"BSTAR":-8.9891572e-5,"MEAN_MOTION_DOT":-2.67e-5,"MEAN_MOTION_DDOT":0},{"OBJECT_NAME":"COSMOS 249 DEB","OBJECT_ID":"1968-091S","EPOCH":"2026-03-09T23:11:16.315584","MEAN_MOTION":14.62767046,"ECCENTRICITY":0.02830409,"INCLINATION":62.2933,"RA_OF_ASC_NODE":296.5114,"ARG_OF_PERICENTER":188.6799,"MEAN_ANOMALY":170.9327,"EPHEMERIS_TYPE":0,"CLASSIFICATION_TYPE":"U","NORAD_CAT_ID":3584,"ELEMENT_SET_NO":999,"REV_AT_EPOCH":84837,"BSTAR":0.0011832557,"MEAN_MOTION_DOT":0.00010675,"MEAN_MOTION_DDOT":0}]
